OBJECT_NAME,OBJECT_ID,EPOCH,MEAN_MOTION,ECCENTRICITY,INCLINATION,RA_OF_ASC_NODE,ARG_OF_PERICENTER,MEAN_ANOMALY,EPHEMERIS_TYPE,CLASSIFICATION_TYPE,NORAD_CAT_ID,ELEMENT_SET_NO,REV_AT_EPOCH,BSTAR,MEAN_MOTION_DOT,MEAN_MOTION_DDOT
SL-8 R/B,1985-006B,2026-07-04T21:17:35.561760,14.37841827,.00192447,74.0454,45.4922,289.9964,81.1343,0,U,15483,999,17087,.75423416E-4,.201E-5,0
SL-12 R/B(2),1985-042D,2026-07-04T11:40:19.870176,14.22009406,.00370878,71.1060,200.9671,301.9359,218.6086,0,U,15772,999,13099,.64169333E-4,.95E-6,0
SL-14 R/B,1985-069B,2026-07-04T12:51:44.987040,14.86530079,.0019291,82.5272,275.0505,160.8460,199.3486,0,U,15945,999,19019,.67203009E-4,.621E-5,0
SL-16 R/B,1985-097B,2026-07-04T22:39:18.683136,14.16614214,.00052761,71.0026,253.6951,72.0446,108.2114,0,U,16182,999,10383,-.77168399E-4,-.202E-5,0
SL-14 R/B,1986-006B,2026-07-04T21:13:19.931808,14.86962723,.00748298,82.5274,149.4595,243.6033,115.7490,0,U,16496,999,16662,.66876582E-4,.655E-5,0
COSMOS 1743,1986-034A,2026-07-04T07:36:15.605856,15.68614241,.00048551,82.5286,310.4985,211.6529,148.4441,0,U,16719,999,19847,.66120816E-3,.75538E-3,0
SL-14 R/B,1986-046B,2026-07-04T15:56:25.130400,14.85685182,.00225833,82.4831,329.6602,197.8411,162.2015,0,U,16792,999,14377,.71914137E-4,.65E-5,0
SL-14 R/B,1986-055B,2026-07-04T18:44:40.365600,14.85735847,.00176242,82.5198,16.5895,307.7185,62.6681,0,U,16882,999,13675,.6028167E-4,.548E-5,0
AJISAI (EGS),1986-061A,2026-07-04T19:08:51.990144,12.44516681,.00111259,50.0097,93.2429,225.3736,180.9573,0,U,16908,999,48258,-.73284452E-4,-.108E-5,0
SL-14 R/B,1987-024B,2026-07-04T17:20:14.557344,14.86226724,.00170208,82.5289,342.7670,230.1095,129.8626,0,U,17567,999,10551,.68307836E-4,.625E-5,0
COSMOS 1833,1987-027A,2026-07-04T22:43:59.938464,14.13062516,.00235464,70.9210,79.5399,25.4782,334.7494,0,U,17589,999,2688,.14835121E-3,.23E-5,0
SL-16 R/B,1987-027B,2026-07-04T20:41:29.829120,14.17175066,.00070781,71.0032,29.5823,293.1712,66.8666,0,U,17590,999,3194,-.32032832E-4,-.113E-5,0
SL-14 R/B,1987-038B,2026-07-04T17:02:45.614688,14.85457088,.00203491,82.5003,186.5660,134.5604,225.7278,0,U,17912,999,9660,.6096608E-4,.552E-5,0
COSMOS 1844,1987-041A,2026-07-04T15:27:35.118144,14.14574555,.00319689,70.8982,147.4841,210.1841,149.7440,0,U,17973,999,2012,.25749553E-3,.449E-5,0
SL-14 R/B,1987-055B,2026-07-04T20:50:44.264832,14.85722971,.00202406,82.4980,238.5614,350.4418,9.6410,0,U,18153,999,8733,.50997106E-4,.468E-5,0
COSMOS 1867,1987-060A,2026-07-04T21:04:09.831648,14.31517839,.00169134,65.0119,338.5138,282.1272,77.7917,0,U,18187,999,3671,.27952892E-4,-.26E-6,0
SL-14 R/B,1988-001B,2026-07-04T11:13:30.744480,14.85622310,.00171973,82.5131,85.5168,207.8153,152.2145,0,U,18749,999,5936,.61813816E-4,.56E-5,0
COSMOS 1933,1988-020A,2026-07-04T19:50:03.110496,15.18838658,.0005292,82.5134,134.9667,132.8110,227.3570,0,U,18958,999,6800,.28673636E-3,.6002E-4,0
SL-3 R/B,1988-032B,2026-07-04T22:35:30.779808,15.20977083,.00254478,97.5268,168.9659,180.7256,179.3947,0,U,19046,999,6992,.27219223E-3,.6012E-4,0
SL-16 R/B,1988-039B,2026-07-04T17:40:23.567232,14.19631639,.00212011,71.0129,181.0497,166.1013,194.0701,0,U,19120,999,97499,.96747071E-4,.157E-5,0
COSMOS 1953,1988-050A,2026-07-04T20:56:05.561376,15.30232968,.0012223,82.5065,40.1963,72.4898,287.7677,0,U,19210,999,5569,.42102066E-3,.12376E-3,0
SL-8 R/B,1988-053B,2026-07-04T10:42:13.529952,14.38974501,.0019364,74.0472,257.2442,46.2608,324.8442,0,U,19257,999,99339,.82690643E-4,.229E-5,0
COSMOS 1975,1988-093A,2026-07-04T11:48:44.539488,15.29563036,.00124637,82.5195,0.2904,115.5940,244.6589,0,U,19573,999,3725,.42966635E-3,.12373E-3,0
SL-14 R/B,1988-093B,2026-07-04T17:37:45.105312,14.85755704,.00209512,82.5320,292.1715,15.1409,146.2552,0,U,19574,999,1839,.63889108E-4,.581E-5,0
SL-16 R/B,1988-102B,2026-07-04T12:32:29.196096,14.16169680,.00148725,71.0001,265.6637,201.5085,158.5415,0,U,19650,999,94343,.5781566E-5,-.36E-6,0
INTERCOSMOS 24,1989-080A,2026-07-04T19:21:17.291232,12.59686507,.11877477,82.6048,28.1784,21.0535,343.5475,0,U,20261,999,68154,.22569913E-3,.785E-5,0
SL-14 R/B,1989-080C,2026-07-04T10:36:35.712864,12.50576599,.12284122,82.5942,98.2221,277.9028,68.4692,0,U,20262,999,67474,.49227193E-4,.163E-5,0
DELTA 1 R/B,1989-089B,2026-07-04T19:22:32.098944,14.50743848,.00704465,97.0635,14.5458,112.0648,248.8051,0,U,20323,999,91271,.13339148E-3,.507E-5,0
ARIANE 40 R/B,1990-005H,2026-07-04T10:00:05.408064,14.39936741,.00095528,98.2950,242.4965,206.9095,153.1599,0,U,20443,999,90960,.10792948E-3,.297E-5,0
DELTA 2 R/B(1),1990-008B,2026-07-04T22:17:23.923104,15.71904459,.00633988,35.6004,116.7198,280.5467,78.8136,0,U,20453,999,94449,.96266384E-3,.149446E-2,0
