SL-8 R/B                
1 15483U 85006B   26185.88721715  .00000201  00000+0  75423-4 0  9998
2 15483  74.0454  45.4922 0019244 289.9964  81.1343 14.37841827170878
SL-12 R/B(2)            
1 15772U 85042D   26185.48634109  .00000095  00000+0  64169-4 0  9991
2 15772  71.1060 200.9671 0037087 301.9359 218.6086 14.22009406130990
SL-14 R/B               
1 15945U 85069B   26185.53593735  .00000621  00000+0  67203-4 0  9994
2 15945  82.5272 275.0505 0019291 160.8460 199.3486 14.86530079190196
SL-16 R/B               
1 16182U 85097B   26185.94396624 -.00000202  00000+0 -77168-4 0  9990
2 16182  71.0026 253.6951 0005276  72.0446 108.2114 14.16614214103832
SL-14 R/B               
1 16496U 86006B   26185.88425847  .00000655  00000+0  66877-4 0  9997
2 16496  82.5274 149.4595 0074829 243.6033 115.7490 14.86962723166620
COSMOS 1743             
1 16719U 86034A   26185.31684729  .00075538  00000+0  66121-3 0  9993
2 16719  82.5286 310.4985 0004855 211.6529 148.4441 15.68614241198478
SL-14 R/B               
1 16792U 86046B   26185.66417975  .00000650  00000+0  71914-4 0  9992
2 16792  82.4831 329.6602 0022583 197.8411 162.2015 14.85685182143779
SL-14 R/B               
1 16882U 86055B   26185.78102275  .00000548  00000+0  60282-4 0  9991
2 16882  82.5198  16.5895 0017624 307.7185  62.6681 14.85735847136758
AJISAI (EGS)            
1 16908U 86061A   26185.79782396 -.00000108  00000+0 -73284-4 0  9996
2 16908  50.0097  93.2429 0011125 225.3736 180.9573 12.44516681482582
SL-14 R/B               
1 17567U 87024B   26185.72239071  .00000625  00000+0  68308-4 0  9991
2 17567  82.5289 342.7670 0017020 230.1095 129.8626 14.86226724105519
COSMOS 1833             
1 17589U 87027A   26185.94722151  .00000230  00000+0  14835-3 0  9995
2 17589  70.9210  79.5399 0023546  25.4782 334.7494 14.13062516 26888
SL-16 R/B               
1 17590U 87027B   26185.86215080 -.00000113  00000+0 -32033-4 0  9999
2 17590  71.0032  29.5823 0007078 293.1712  66.8666 14.17175066 31946
SL-14 R/B               
1 17912U 87038B   26185.71025017  .00000552  00000+0  60966-4 0  9993
2 17912  82.5003 186.5660 0020349 134.5604 225.7278 14.85457088 96607
COSMOS 1844             
1 17973U 87041A   26185.64415646  .00000449  00000+0  25750-3 0  9993
2 17973  70.8982 147.4841 0031968 210.1841 149.7440 14.14574555 20121
SL-14 R/B               
1 18153U 87055B   26185.86856788  .00000468  00000+0  50997-4 0  9992
2 18153  82.4980 238.5614 0020240 350.4418   9.6410 14.85722971 87330
COSMOS 1867             
1 18187U 87060A   26185.87789157 -.00000026  00000+0  27953-4 0  9998
2 18187  65.0119 338.5138 0016913 282.1272  77.7917 14.31517839 36711
SL-14 R/B               
1 18749U 88001B   26185.46771695  .00000560  00000+0  61814-4 0  9997
2 18749  82.5131  85.5168 0017197 207.8153 152.2145 14.85622310 59360
COSMOS 1933             
1 18958U 88020A   26185.82642489  .00006002  00000+0  28674-3 0  9991
2 18958  82.5134 134.9667 0005292 132.8110 227.3570 15.18838658 68009
SL-3 R/B                
1 19046U 88032B   26185.94132847  .00006012  00000+0  27219-3 0  9993
2 19046  97.5268 168.9659 0025447 180.7256 179.3947 15.20977083 69922
SL-16 R/B               
1 19120U 88039B   26185.73638388  .00000157  00000+0  96747-4 0  9998
2 19120  71.0129 181.0497 0021201 166.1013 194.0701 14.19631639974992
COSMOS 1953             
1 19210U 88050A   26185.87228659  .00012376  00000+0  42102-3 0  9993
2 19210  82.5065  40.1963 0012223  72.4898 287.7677 15.30232968 55690
SL-8 R/B                
1 19257U 88053B   26185.44598993  .00000229  00000+0  82691-4 0  9993
2 19257  74.0472 257.2442 0019364  46.2608 324.8442 14.38974501993397
COSMOS 1975             
1 19573U 88093A   26185.49218217  .00012373  00000+0  42967-3 0  9995
2 19573  82.5195   0.2904 0012463 115.5940 244.6589 15.29563036 37258
SL-14 R/B               
1 19574U 88093B   26185.73454983  .00000581  00000+0  63889-4 0  9990
2 19574  82.5320 292.1715 0020951  15.1409 146.2552 14.85755704 18394
SL-16 R/B               
1 19650U 88102B   26185.52256014 -.00000036  00000+0  57816-5 0  9998
2 19650  71.0001 265.6637 0014872 201.5085 158.5415 14.16169680943434
INTERCOSMOS 24          
1 20261U 89080A   26185.80645013  .00000785  00000+0  22570-3 0  9993
2 20261  82.6048  28.1784 1187747  21.0535 343.5475 12.59686507681546
SL-14 R/B               
1 20262U 89080C   26185.44208001  .00000163  00000+0  49227-4 0  9995
2 20262  82.5942  98.2221 1228412 277.9028  68.4692 12.50576599674745
DELTA 1 R/B             
1 20323U 89089B   26185.80731596  .00000507  00000+0  13339-3 0  9998
2 20323  97.0635  14.5458 0070446 112.0648 248.8051 14.50743848912714
ARIANE 40 R/B           
1 20443U 90005H   26185.41672926  .00000297  00000+0  10793-3 0  9996
2 20443  98.2950 242.4965 0009552 206.9095 153.1599 14.39936741909606
DELTA 2 R/B(1)          
1 20453U 90008B   26185.92874911  .00149446  00000+0  96266-3 0  9993
2 20453  35.6004 116.7198 0063398 280.5467  78.8136 15.71904459944496
